start=new Date('2021-10-17T00:00:00.000Z').valueOf();
sats=[{"DECAY_DATE":null,"INCLINATION":"53.0573","RA_OF_ASC_NODE":"2.6496","OBJECT_NAME":"STARLINK-2626","PERIOD":"95.592","OBJECT_ID":"2021-038L","CENTER_NAME":"EARTH","SITE":"AFETR","BSTAR":"-0.00002257500000","FILE":"3166366","SEMIMAJOR_AXIS":"6925.366","NORAD_CAT_ID":"48363","REV_AT_EPOCH":"2574","MEAN_MOTION_DDOT":"0.0000000000000","RCS_SIZE":"LARGE","EPHEMERIS_TYPE":"0","TIME_SYSTEM":"UTC","LAUNCH_DATE":"2021-05-04","MEAN_ANOMALY":"263.5890","OBJECT_TYPE":"PAYLOAD","REF_FRAME":"TEME","ELEMENT_SET_NO":"999","CLASSIFICATION_TYPE":"U","GP_ID":"187330445","TLE_LINE2":"2 48363  53.0573   2.6496 0001424  96.5261 263.5890 15.06394405 25744","EPOCH":"2021-10-16T11:38:09.371616","ECCENTRICITY":"0.00014240","MEAN_MOTION_DOT":"-0.00000618","PERIAPSIS":"546.245","MEAN_ELEMENT_THEORY":"SGP4","ARG_OF_PERICENTER":"96.5261","APOAPSIS":"548.217","MEAN_MOTION":"15.06394405","COUNTRY_CODE":"US","TLE_LINE1":"1 48363U 21038L   21289.48483069 -.00000618  00000-0 -22575-4 0  9994"},{"MEAN_MOTION":"15.06379240","TLE_LINE1":"1 48364U 21038M   21289.34752357  .00001256  00000-0  10322-3 0  9992","COUNTRY_CODE":"US","ARG_OF_PERICENTER":"95.1816","MEAN_ELEMENT_THEORY":"SGP4","APOAPSIS":"547.974","PERIAPSIS":"546.580","MEAN_MOTION_DOT":"0.00001256","EPOCH":"2021-10-16T08:20:26.036448","GP_ID":"187357814","TLE_LINE2":"2 48364  53.0570   3.2662 0001006  95.1816 264.9288 15.06379240 25130","ECCENTRICITY":"0.00010060","ELEMENT_SET_NO":"999","CLASSIFICATION_TYPE":"U","REF_FRAME":"TEME","MEAN_ANOMALY":"264.9288","OBJECT_TYPE":"PAYLOAD","LAUNCH_DATE":"2021-05-04","TIME_SYSTEM":"UTC","RCS_SIZE":"LARGE","EPHEMERIS_TYPE":"0","REV_AT_EPOCH":"2513","NORAD_CAT_ID":"48364","MEAN_MOTION_DDOT":"0.0000000000000","FILE":"3166610","SEMIMAJOR_AXIS":"6925.412","BSTAR":"0.00010322000000","OBJECT_ID":"2021-038M","CENTER_NAME":"EARTH","SITE":"AFETR","RA_OF_ASC_NODE":"3.2662","INCLINATION":"53.0570","PERIOD":"95.593","OBJECT_NAME":"STARLINK-2611","DECAY_DATE":null},{"TIME_SYSTEM":"UTC","RCS_SIZE":"LARGE","EPHEMERIS_TYPE":"0","NORAD_CAT_ID":"48365","REV_AT_EPOCH":"2575","MEAN_MOTION_DDOT":"0.0000000000000","FILE":"3166366","SEMIMAJOR_AXIS":"6925.514","BSTAR":"0.00086423000000","OBJECT_ID":"2021-038N","SITE":"AFETR","CENTER_NAME":"EARTH","INCLINATION":"53.0576","RA_OF_ASC_NODE":"2.4723","PERIOD":"95.596","OBJECT_NAME":"STARLINK-2608","DECAY_DATE":null,"MEAN_MOTION":"15.06345871","TLE_LINE1":"1 48365U 21038N   21289.52540779  .00012596  00000-0  86423-3 0  9990","COUNTRY_CODE":"US","ARG_OF_PERICENTER":"112.2066","MEAN_ELEMENT_THEORY":"SGP4","APOAPSIS":"549.119","PERIAPSIS":"545.640","MEAN_MOTION_DOT":"0.00012596","GP_ID":"187330447","TLE_LINE2":"2 48365  53.0576   2.4723 0002512 112.2066 247.9189 15.06345871 25759","EPOCH":"2021-10-16T12:36:35.233056","ECCENTRICITY":"0.00025120","ELEMENT_SET_NO":"999","CLASSIFICATION_TYPE":"U","MEAN_ANOMALY":"247.9189","OBJECT_TYPE":"PAYLOAD","REF_FRAME":"TEME","LAUNCH_DATE":"2021-05-04"},{"TLE_LINE1":"1 48366U 21038P   21289.57930190  .00001814  00000-0  14073-3 0  9999","COUNTRY_CODE":"US","MEAN_MOTION":"15.06381091","APOAPSIS":"548.175","MEAN_ELEMENT_THEORY":"SGP4","ARG_OF_PERICENTER":"98.2355","PERIAPSIS":"546.368","MEAN_MOTION_DOT":"0.00001814","ECCENTRICITY":"0.00013050","TLE_LINE2":"2 48366  53.0563 357.2281 0001305  98.2355 261.8782 15.06381091 25825","GP_ID":"187330440","EPOCH":"2021-10-16T13:54:11.684160","ELEMENT_SET_NO":"999","CLASSIFICATION_TYPE":"U","MEAN_ANOMALY":"261.8782","OBJECT_TYPE":"PAYLOAD","REF_FRAME":"TEME","LAUNCH_DATE":"2021-05-04","TIME_SYSTEM":"UTC","RCS_SIZE":"LARGE","EPHEMERIS_TYPE":"0","MEAN_MOTION_DDOT":"0.0000000000000","NORAD_CAT_ID":"48366","REV_AT_EPOCH":"2582","SEMIMAJOR_AXIS":"6925.407","FILE":"3166366","BSTAR":"0.00014073000000","CENTER_NAME":"EARTH","SITE":"AFETR","OBJECT_ID":"2021-038P","OBJECT_NAME":"STARLINK-2631","PERIOD":"95.593","INCLINATION":"53.0563","RA_OF_ASC_NODE":"357.2281","DECAY_DATE":null},{"LAUNCH_DATE":"2021-05-04","REF_FRAME":"TEME","MEAN_ANOMALY":"263.3226","OBJECT_TYPE":"PAYLOAD","ELEMENT_SET_NO":"999","CLASSIFICATION_TYPE":"U","EPOCH":"2021-10-15T21:53:29.309856","GP_ID":"187325541","TLE_LINE2":"2 48367  53.0579   0.2284 0001303  96.7912 263.3226 15.06384288 25136","ECCENTRICITY":"0.00013030","MEAN_MOTION_DOT":"-0.00000948","PERIAPSIS":"546.359","ARG_OF_PERICENTER":"96.7912","MEAN_ELEMENT_THEORY":"SGP4","APOAPSIS":"548.164","MEAN_MOTION":"15.06384288","TLE_LINE1":"1 48367U 21038Q   21288.91214479 -.00000948  00000-0 -44792-4 0  9993","COUNTRY_CODE":"US","DECAY_DATE":null,"RA_OF_ASC_NODE":"0.2284","INCLINATION":"53.0579","PERIOD":"95.593","OBJECT_NAME":"STARLINK-2643","OBJECT_ID":"2021-038Q","SITE":"AFETR","CENTER_NAME":"EARTH","BSTAR":"-0.00004479200000","FILE":"3166151","SEMIMAJOR_AXIS":"6925.397","REV_AT_EPOCH":"2513","NORAD_CAT_ID":"48367","MEAN_MOTION_DDOT":"0.0000000000000","EPHEMERIS_TYPE":"0","RCS_SIZE":"LARGE","TIME_SYSTEM":"UTC"},{"LAUNCH_DATE":"2021-05-04","REF_FRAME":"TEME","OBJECT_TYPE":"PAYLOAD","MEAN_ANOMALY":"262.4874","CLASSIFICATION_TYPE":"U","ELEMENT_SET_NO":"999","ECCENTRICITY":"0.00012350","EPOCH":"2021-10-16T04:40:49.254528","GP_ID":"187358314","TLE_LINE2":"2 48368  53.0559 358.9511 0001235  97.6255 262.4874 15.06382348 25184","MEAN_MOTION_DOT":"0.00001410","PERIAPSIS":"546.412","APOAPSIS":"548.123","ARG_OF_PERICENTER":"97.6255","MEAN_ELEMENT_THEORY":"SGP4","TLE_LINE1":"1 48368U 21038R   21289.19501452  .00001410  00000-0  11355-3 0  9996","COUNTRY_CODE":"US","MEAN_MOTION":"15.06382348","DECAY_DATE":null,"OBJECT_NAME":"STARLINK-2623","PERIOD":"95.593","RA_OF_ASC_NODE":"358.9511","INCLINATION":"53.0559","CENTER_NAME":"EARTH","SITE":"AFETR","OBJECT_ID":"2021-038R","BSTAR":"0.00011355000000","SEMIMAJOR_AXIS":"6925.403","FILE":"3166610","MEAN_MOTION_DDOT":"0.0000000000000","REV_AT_EPOCH":"2518","NORAD_CAT_ID":"48368","EPHEMERIS_TYPE":"0","RCS_SIZE":"LARGE","TIME_SYSTEM":"UTC"},{"REF_FRAME":"TEME","MEAN_ANOMALY":"274.7705","OBJECT_TYPE":"PAYLOAD","LAUNCH_DATE":"2021-05-04","ECCENTRICITY":"0.00009610","EPOCH":"2021-10-16T07:21:25.346304","GP_ID":"187357062","TLE_LINE2":"2 48369  53.0549 358.4604 0000961  85.3394 274.7705 15.06375856 25191","ELEMENT_SET_NO":"999","CLASSIFICATION_TYPE":"U","PERIAPSIS":"546.622","MEAN_MOTION_DOT":"0.00001757","TLE_LINE1":"1 48369U 21038S   21289.30654336  .00001757  00000-0  13688-3 0  9995","COUNTRY_CODE":"US","MEAN_MOTION":"15.06375856","APOAPSIS":"547.953","ARG_OF_PERICENTER":"85.3394","MEAN_ELEMENT_THEORY":"SGP4","OBJECT_NAME":"STARLINK-2641","PERIOD":"95.594","RA_OF_ASC_NODE":"358.4604","INCLINATION":"53.0549","DECAY_DATE":null,"BSTAR":"0.00013688000000","SITE":"AFETR","CENTER_NAME":"EARTH","OBJECT_ID":"2021-038S","MEAN_MOTION_DDOT":"0.0000000000000","REV_AT_EPOCH":"2519","NORAD_CAT_ID":"48369","SEMIMAJOR_AXIS":"6925.423","FILE":"3166610","TIME_SYSTEM":"UTC","RCS_SIZE":"LARGE","EPHEMERIS_TYPE":"0"},{"BSTAR":"0.00026598000000","OBJECT_ID":"2021-038T","SITE":"AFETR","CENTER_NAME":"EARTH","INCLINATION":"53.0563","RA_OF_ASC_NODE":"358.1721","OBJECT_NAME":"STARLINK-2621","PERIOD":"95.594","DECAY_DATE":null,"TIME_SYSTEM":"UTC","RCS_SIZE":"LARGE","EPHEMERIS_TYPE":"0","NORAD_CAT_ID":"48370","REV_AT_EPOCH":"2520","MEAN_MOTION_DDOT":"0.0000000000000","FILE":"3166610","SEMIMAJOR_AXIS":"6925.458","TLE_LINE2":"2 48370  53.0563 358.1721 0001284  98.5620 261.5515 15.06364435 25209","GP_ID":"187356813","EPOCH":"2021-10-16T08:51:39.901248","ECCENTRICITY":"0.00012840","ELEMENT_SET_NO":"999","CLASSIFICATION_TYPE":"U","MEAN_ANOMALY":"261.5515","OBJECT_TYPE":"PAYLOAD","REF_FRAME":"TEME","LAUNCH_DATE":"2021-05-04","MEAN_MOTION":"15.06364435","TLE_LINE1":"1 48370U 21038T   21289.36921182  .00003679  00000-0  26598-3 0  9998","COUNTRY_CODE":"US","ARG_OF_PERICENTER":"98.5620","MEAN_ELEMENT_THEORY":"SGP4","APOAPSIS":"548.212","PERIAPSIS":"546.433","MEAN_MOTION_DOT":"0.00003679"},{"REF_FRAME":"TEME","OBJECT_TYPE":"PAYLOAD","MEAN_ANOMALY":"263.4248","LAUNCH_DATE":"2021-05-04","ECCENTRICITY":"0.00013220","EPOCH":"2021-10-16T08:46:20.915040","GP_ID":"187358064","TLE_LINE2":"2 48371  53.0576 358.1926 0001322  96.6892 263.4248 15.06385994 25201","ELEMENT_SET_NO":"999","CLASSIFICATION_TYPE":"U","PERIAPSIS":"546.341","MEAN_MOTION_DOT":"0.00002235","TLE_LINE1":"1 48371U 21038U   21289.36551985  .00002235  00000-0  16896-3 0  9996","COUNTRY_CODE":"US","MEAN_MOTION":"15.06385994","APOAPSIS":"548.172","MEAN_ELEMENT_THEORY":"SGP4","ARG_OF_PERICENTER":"96.6892","OBJECT_NAME":"STARLINK-2589","PERIOD":"95.593","RA_OF_ASC_NODE":"358.1926","INCLINATION":"53.0576","DECAY_DATE":null,"BSTAR":"0.00016896000000","CENTER_NAME":"EARTH","SITE":"AFETR","OBJECT_ID":"2021-038U","MEAN_MOTION_DDOT":"0.0000000000000","REV_AT_EPOCH":"2520","NORAD_CAT_ID":"48371","SEMIMAJOR_AXIS":"6925.391","FILE":"3166610","TIME_SYSTEM":"UTC","EPHEMERIS_TYPE":"0","RCS_SIZE":"LARGE"},{"DECAY_DATE":null,"OBJECT_NAME":"STARLINK-2572","PERIOD":"95.593","RA_OF_ASC_NODE":"358.2059","INCLINATION":"53.0571","CENTER_NAME":"EARTH","SITE":"AFETR","OBJECT_ID":"2021-038V","BSTAR":"0.00019567000000","SEMIMAJOR_AXIS":"6925.376","FILE":"3166610","MEAN_MOTION_DDOT":"0.0000000000000","REV_AT_EPOCH":"2520","NORAD_CAT_ID":"48372","RCS_SIZE":"MEDIUM","EPHEMERIS_TYPE":"0","TIME_SYSTEM":"UTC","LAUNCH_DATE":"2021-05-04","REF_FRAME":"TEME","MEAN_ANOMALY":"263.5693","OBJECT_TYPE":"PAYLOAD","CLASSIFICATION_TYPE":"U","ELEMENT_SET_NO":"999","ECCENTRICITY":"0.00013700","EPOCH":"2021-10-16T08:41:02.164704","TLE_LINE2":"2 48372  53.0571 358.2059 0001370  96.5452 263.5693 15.06391124 25206","GP_ID":"187357815","MEAN_MOTION_DOT":"0.00002634","PERIAPSIS":"546.292","APOAPSIS":"548.190","ARG_OF_PERICENTER":"96.5452","MEAN_ELEMENT_THEORY":"SGP4","TLE_LINE1":"1 48372U 21038V   21289.36183061  .00002634  00000-0  19567-3 0  9994","COUNTRY_CODE":"US","MEAN_MOTION":"15.06391124"}];
